{"type": "FeatureCollection", "features": [ {"type": "Feature", "properties": {"norad_id": 29820, "name": "FENGYUN 1C DEB", "group": "fengyun-1c-debris", "lat": -57.5129886760753, "lon": 6.676543261474642, "alt_km": 865.4854182210856, "timestamp": "2025-12-11T10:53:16.158205+00:00", "meta": {"OBJECT_NAME": "FENGYUN 1C DEB", "OBJECT_ID": "1999-025DN", "EPOCH": "2025-12-10T18:54:45.910368", "MEAN_MOTION": 14.02599196, "ECCENTRICITY": 0.00719964, "INCLINATION": 98.8316, "RA_OF_ASC_NODE": 351.8989, "ARG_OF_PERICENTER": 243.2247, "MEAN_ANOMALY": 298.3793, "EPHEMERIS_TYPE": 0, "CLASSIFICATION_TYPE": "U", "NORAD_CAT_ID": 29820, "ELEMENT_SET_NO": 999, "REV_AT_EPOCH": 96532, "BSTAR": 0.00078181982, "MEAN_MOTION_DOT": 1.19e-05, "MEAN_MOTION_DDOT": 0}, "tle": {"line1": "1 29820U 99025DN  25344.78803137  .00001190  00000+0  78182-3 0  9990", "line2": "2 29820  98.8316 351.8989 0071996 243.2247 298.3793 14.02599196965329"}}, "geometry": {"type": "Point", "coordinates": [6.676543261474642, -57.5129886760753]}}, {"type": "Feature", "properties": {"norad_id": 29821, "name": "FENGYUN 1C DEB", "group": "fengyun-1c-debris", "lat": -48.945710409327404, "lon": 50.79258354264638, "alt_km": 1133.2789420522467, "timestamp": "2025-12-11T10:53:16.158217+00:00", "meta": {"OBJECT_NAME": "FENGYUN 1C DEB", "OBJECT_ID": "1999-025DP", "EPOCH": "2025-12-11T02:46:12.993024", "MEAN_MOTION": 14.11054632, "ECCENTRICITY": 0.0376361, "INCLINATION": 98.8735, "RA_OF_ASC_NODE": 40.1246, "ARG_OF_PERICENTER": 125.2919, "MEAN_ANOMALY": 268.3129, "EPHEMERIS_TYPE": 0, "CLASSIFICATION_TYPE": "U", "NORAD_CAT_ID": 29821, "ELEMENT_SET_NO": 999, "REV_AT_EPOCH": 96488, "BSTAR": 0.0010155, "MEAN_MOTION_DOT": 3.517e-05, "MEAN_MOTION_DDOT": 0}, "tle": {"line1": "1 29821U 99025DP  25345.11542816  .00003517  00000+0  10155-2 0  9993", "line2": "2 29821  98.8735  40.1246 0376361 125.2919 268.3129 14.11054632964889"}}, "geometry": {"type": "Point", "coordinates": [50.79258354264638, -48.945710409327404]}}, {"type": "Feature", "properties": {"norad_id": 29827, "name": "FENGYUN 1C DEB", "group": "fengyun-1c-debris", "lat": -63.214807124636486, "lon": 139.2359023000572, "alt_km": 824.2357726253131, "timestamp": "2025-12-11T10:53:16.158228+00:00", "meta": {"OBJECT_NAME": "FENGYUN 1C DEB", "OBJECT_ID": "1999-025DV", "EPOCH": "2025-12-10T12:21:05.505120", "MEAN_MOTION": 14.21682091, "ECCENTRICITY": 0.00251373, "INCLINATION": 98.6021, "RA_OF_ASC_NODE": 335.7695, "ARG_OF_PERICENTER": 329.1038, "MEAN_ANOMALY": 152.4647, "EPHEMERIS_TYPE": 0, "CLASSIFICATION_TYPE": "U", "NORAD_CAT_ID": 29827, "ELEMENT_SET_NO": 999, "REV_AT_EPOCH": 97831, "BSTAR": 0.00053442819, "MEAN_MOTION_DOT": 1.134e-05, "MEAN_MOTION_DDOT": 0}, "tle": {"line1": "1 29827U 99025DV  25344.51464705  .00001134  00000+0  53443-3 0  9993", "line2": "2 29827  98.6021 335.7695 0025137 329.1038 152.4647 14.21682091978319"}}, "geometry": {"type": "Point", "coordinates": [139.2359023000572, -63.214807124636486]}}, {"type": "Feature", "properties": {"norad_id": 29828, "name": "FENGYUN 1C DEB", "group": "fengyun-1c-debris", "lat": 3.257109901449304, "lon": 30.456271894942724, "alt_km": 908.7672560865285, "timestamp": "2025-12-11T10:53:16.158239+00:00", "meta": {"OBJECT_NAME": "FENGYUN 1C DEB", "OBJECT_ID": "1999-025DW", "EPOCH": "2025-12-10T22:04:16.277376", "MEAN_MOTION": 14.08155771, "ECCENTRICITY": 0.0061349, "INCLINATION": 98.7702, "RA_OF_ASC_NODE": 30.4407, "ARG_OF_PERICENTER": 161.1124, "MEAN_ANOMALY": 16.9156, "EPHEMERIS_TYPE": 0, "CLASSIFICATION_TYPE": "U", "NORAD_CAT_ID": 29828, "ELEMENT_SET_NO": 999, "REV_AT_EPOCH": 96711, "BSTAR": 0.0010055, "MEAN_MOTION_DOT": 1.702e-05, "MEAN_MOTION_DDOT": 0}, "tle": {"line1": "1 29828U 99025DW  25344.91963284  .00001702  00000+0  10055-2 0  9996", "line2": "2 29828  98.7702  30.4407 0061349 161.1124  16.9156 14.08155771967112"}}, "geometry": {"type": "Point", "coordinates": [30.456271894942724, 3.257109901449304]}}, {"type": "Feature", "properties": {"norad_id": 29832, "name": "FENGYUN 1C DEB", "group": "fengyun-1c-debris", "lat": 10.410178024663546, "lon": -81.56009500323634, "alt_km": 767.0939067876006, "timestamp": "2025-12-11T10:53:16.158250+00:00", "meta": {"OBJECT_NAME": "FENGYUN 1C DEB", "OBJECT_ID": "1999-025EA", "EPOCH": "2025-12-11T05:08:53.480832", "MEAN_MOTION": 14.56551463, "ECCENTRICITY": 0.0192241, "INCLINATION": 98.8194, "RA_OF_ASC_NODE": 96.5524, "ARG_OF_PERICENTER": 287.7894, "MEAN_ANOMALY": 70.241, "EPHEMERIS_TYPE": 0, "CLASSIFICATION_TYPE": "U", "NORAD_CAT_ID": 29832, "ELEMENT_SET_NO": 999, "REV_AT_EPOCH": 233, "BSTAR": 0.00022938, "MEAN_MOTION_DOT": 1.247e-05, "MEAN_MOTION_DDOT": 0}, "tle": {"line1": "1 29832U 99025EA  25345.21450788  .00001247  00000+0  22938-3 0  9993", "line2": "2 29832  98.8194  96.5524 0192241 287.7894  70.2410 14.56551463  2332"}}, "geometry": {"type": "Point", "coordinates": [-81.56009500323634, 10.410178024663546]}}, {"type": "Feature", "properties": {"norad_id": 29833, "name": "FENGYUN 1C DEB", "group": "fengyun-1c-debris", "lat": 18.562709468389414, "lon": -35.49552882110688, "alt_km": 623.265130753547, "timestamp": "2025-12-11T10:53:16.158262+00:00", "meta": {"OBJECT_NAME": "FENGYUN 1C DEB", "OBJECT_ID": "1999-025EB", "EPOCH": "2025-12-10T21:55:07.232160", "MEAN_MOTION": 14.91029758, "ECCENTRICITY": 0.0088845, "INCLINATION": 99.077, "RA_OF_ASC_NODE": 326.9611, "ARG_OF_PERICENTER": 262.9951, "MEAN_ANOMALY": 96.1152, "EPHEMERIS_TYPE": 0, "CLASSIFICATION_TYPE": "U", "NORAD_CAT_ID": 29833, "ELEMENT_SET_NO": 999, "REV_AT_EPOCH": 544, "BSTAR": 0.0018908, "MEAN_MOTION_DOT": 0.00020144, "MEAN_MOTION_DDOT": 0}, "tle": {"line1": "1 29833U 99025EB  25344.91327815  .00020144  00000+0  18908-2 0  9992", "line2": "2 29833  99.0770 326.9611 0088845 262.9951  96.1152 14.91029758  5447"}}, "geometry": {"type": "Point", "coordinates": [-35.49552882110688, 18.562709468389414]}}, {"type": "Feature", "properties": {"norad_id": 29835, "name": "FENGYUN 1C DEB", "group": "fengyun-1c-debris", "lat": 64.48970932443615, "lon": 94.31034093766492, "alt_km": 632.2164284447344, "timestamp": "2025-12-11T10:53:16.158273+00:00", "meta": {"OBJECT_NAME": "FENGYUN 1C DEB", "OBJECT_ID": "1999-025ED", "EPOCH": "2025-12-10T14:42:03.278016", "MEAN_MOTION": 14.43372882, "ECCENTRICITY": 0.0168028, "INCLINATION": 99.0255, "RA_OF_ASC_NODE": 112.8749, "ARG_OF_PERICENTER": 43.51, "MEAN_ANOMALY": 333.6762, "EPHEMERIS_TYPE": 0, "CLASSIFICATION_TYPE": "U", "NORAD_CAT_ID": 29835, "ELEMENT_SET_NO": 999, "REV_AT_EPOCH": 99464, "BSTAR": 9.9037e-05, "MEAN_MOTION_DOT": 3.4e-06, "MEAN_MOTION_DDOT": 0}, "tle": {"line1": "1 29835U 99025ED  25344.61253794  .00000340  00000+0  99037-4 0  9995", "line2": "2 29835  99.0255 112.8749 0168028  43.5100 333.6762 14.43372882994643"}}, "geometry": {"type": "Point", "coordinates": [94.31034093766492, 64.48970932443615]}}, {"type": "Feature", "properties": {"norad_id": 29836, "name": "FENGYUN 1C DEB", "group": "fengyun-1c-debris", "lat": -81.1850831374319, "lon": -166.77341417697886, "alt_km": 664.2549195345991, "timestamp": "2025-12-11T10:53:16.158284+00:00", "meta": {"OBJECT_NAME": "FENGYUN 1C DEB", "OBJECT_ID": "1999-025EE", "EPOCH": "2025-12-10T05:43:40.656000", "MEAN_MOTION": 14.54076071, "ECCENTRICITY": 0.0154452, "INCLINATION": 98.1877, "RA_OF_ASC_NODE": 80.2307, "ARG_OF_PERICENTER": 210.1123, "MEAN_ANOMALY": 178.7161, "EPHEMERIS_TYPE": 0, "CLASSIFICATION_TYPE": "U", "NORAD_CAT_ID": 29836, "ELEMENT_SET_NO": 999, "REV_AT_EPOCH": 63519, "BSTAR": 0.0010725, "MEAN_MOTION_DOT": 5.259e-05, "MEAN_MOTION_DDOT": 0}, "tle": {"line1": "1 29836U 99025EE  25344.23866500  .00005259  00000+0  10725-2 0  9998", "line2": "2 29836  98.1877  80.2307 0154452 210.1123 178.7161 14.54076071635191"}}, "geometry": {"type": "Point", "coordinates": [-166.77341417697886, -81.1850831374319]}}, {"type": "Feature", "properties": {"norad_id": 29841, "name": "FENGYUN 1C DEB", "group": "fengyun-1c-debris", "lat": -45.15083608652205, "lon": -58.4732511799985, "alt_km": 612.3658826906894, "timestamp": "2025-12-11T10:53:16.158294+00:00", "meta": {"OBJECT_NAME": "FENGYUN 1C DEB", "OBJECT_ID": "1999-025EK", "EPOCH": "2025-12-11T02:52:38.818272", "MEAN_MOTION": 14.46462169, "ECCENTRICITY": 0.0200625, "INCLINATION": 98.8182, "RA_OF_ASC_NODE": 292.2014, "ARG_OF_PERICENTER": 338.5665, "MEAN_ANOMALY": 39.5709, "EPHEMERIS_TYPE": 0, "CLASSIFICATION_TYPE": "U", "NORAD_CAT_ID": 29841, "ELEMENT_SET_NO": 999, "REV_AT_EPOCH": 99300, "BSTAR": 0.00088534, "MEAN_MOTION_DOT": 4.035e-05, "MEAN_MOTION_DDOT": 0}, "tle": {"line1": "1 29841U 99025EK  25345.11989373  .00004035  00000+0  88534-3 0  9991", "line2": "2 29841  98.8182 292.2014 0200625 338.5665  39.5709 14.46462169993000"}}, "geometry": {"type": "Point", "coordinates": [-58.4732511799985, -45.15083608652205]}}, {"type": "Feature", "properties": {"norad_id": 29842, "name": "FENGYUN 1C DEB", "group": "fengyun-1c-debris", "lat": -58.24570800896592, "lon": 87.0454741036614, "alt_km": 750.1983501740124, "timestamp": "2025-12-11T10:53:16.158305+00:00", "meta": {"OBJECT_NAME": "FENGYUN 1C DEB", "OBJECT_ID": "1999-025EL", "EPOCH": "2025-12-11T04:43:27.186816", "MEAN_MOTION": 14.60215513, "ECCENTRICITY": 0.0109144, "INCLINATION": 98.5686, "RA_OF_ASC_NODE": 72.6804, "ARG_OF_PERICENTER": 170.0658, "MEAN_ANOMALY": 220.5123, "EPHEMERIS_TYPE": 0, "CLASSIFICATION_TYPE": "U", "NORAD_CAT_ID": 29842, "ELEMENT_SET_NO": 999, "REV_AT_EPOCH": 99331, "BSTAR": 0.0023467, "MEAN_MOTION_DOT": 0.00012267, "MEAN_MOTION_DDOT": 0}, "tle": {"line1": "1 29842U 99025EL  25345.19684244  .00012267  00000+0  23467-2 0  9998", "line2": "2 29842  98.5686  72.6804 0109144 170.0658 220.5123 14.60215513993310"}}, "geometry": {"type": "Point", "coordinates": [87.0454741036614, -58.24570800896592]}}]}